STARLINK-36103          
1 66985U 25288AC  26002.54663239  .00144798  00000+0  24252-2 0  9996
2 66985  43.0007  42.0191 0000462 255.2816 104.7993 15.50617786  5114
STARLINK-36135          
1 66986U 25288AD  26002.54628719  .00146238  00000+0  24491-2 0  9997
2 66986  43.0006  42.0156 0001442 249.8564 110.2141 15.50615573  5112
STARLINK-36147          
1 66987U 25288AE  26002.54594489  .00145283  00000+0  24352-2 0  9999
2 66987  43.0011  42.0130 0000939 235.2737 124.8034 15.50594784  5114
YAOGAN-47               
1 66988U 25289A   25362.17815560  .00004855  00000+0  20730-3 0  9990
2 66988  97.5253  67.3364 0000855 117.9958 242.1365 15.23366104  2890
CZ-4B R/B               
1 66989U 25289B   26002.74537732  .00180494  12042-4  76811-3 0  9997
2 66989  97.5218  74.6758 0132613 283.1900  75.4597 15.72961269  3860
TJS-22                  
1 66990U 25290A   26002.32609946  .00000003  00000+0  00000+0 0  9998
2 66990   1.9371 285.0523 0003327 344.3606  16.4203  1.00272814   369
CZ-3B R/B               
1 66991U 25290B   25349.72468800  .00057911 -20514-6  75879-3 0  9998
2 66991  28.4636 300.4666 7240884 182.7002 168.6250  2.38388611   165
2025-292A               
1 66993U 25292A   26002.75611629  .00008894  00000+0  63402-3 0  9996
2 66993  97.6505  80.1011 0015159 198.0254 162.0437 15.04714696  3557
2025-292B               
1 66994U 25292B   26002.75535311  .00010181  00000+0  72380-3 0  9997
2 66994  97.6517  80.1047 0014938 198.4058 161.6629 15.04779640  3558
2025-292C               
1 66995U 25292C   26002.75571655  .00010814  00000+0  77026-3 0  9994
2 66995  97.6507  80.1015 0015119 196.5647 163.5087 15.04691245  3551
2025-292D               
1 66996U 25292D   26002.75483428  .00007906  00000+0  56365-3 0  9996
2 66996  97.6503  80.1012 0014323 200.3738 159.6918 15.04757772  3553
2025-292E               
1 66997U 25292E   26002.75324256  .00008693  00000+0  61690-3 0  9991
2 66997  97.6525  80.1096 0014647 201.7045 158.3562 15.04899437  3540
